     2.100          NAVIGATION                              RINEX VERSION / TYPE
fic2rin                                 01/26/2010 00:15:19 PGM / RUN BY / DATE
                                                            END OF HEADER
25 10  1 25 12  0  0.0  .864728353918D-04  .750333128963D-11  .000000000000D+00
     .300000000000D+02 -.766250000000D+02  .425339145654D-08 -.908206057536D+00
    -.403262674809D-05  .114964791574D-01  .527873635292D-05  .515368958473D+04
     .129600000000D+06 -.188127160072D-06 -.173273498716D+01 -.745058059692D-08
     .972040695660D+00  .286781250000D+03 -.120508368613D+01 -.824141471657D-08
     .732173355102D-10  .100000000000D+01  .156800000000D+04  .000000000000D+00
     .240000000000D+01  .630000000000D+02 -.745058059692D-08  .300000000000D+02
     .122406000000D+06  .400000000000D+01
26 10  1 25 12  0  0.0 -.125332735479D-04 -.318323145621D-11  .000000000000D+00
     .380000000000D+02  .287500000000D+02  .392659212975D-08  .343575141089D+00
     .169128179550D-05  .196719788946D-01  .281445682049D-05  .515362274742D+04
     .129600000000D+06 -.346451997757D-06 -.262580247437D+01  .201165676117D-06
     .991675307714D+00  .343687500000D+03  .105847640869D+01 -.831141763248D-08
    -.378587198248D-10  .100000000000D+01  .156800000000D+04  .000000000000D+00
     .240000000000D+01  .000000000000D+00 -.605359673500D-08  .380000000000D+02
     .122406000000D+06  .400000000000D+01
27 10  1 25 12  0  0.0  .120250508189D-03  .341060513165D-11  .000000000000D+00
     .520000000000D+02 -.106437500000D+03  .398230873629D-08 -.312420934665D+01
    -.553950667381D-05  .217668052064D-01  .530481338501D-05  .515369001007D+04
     .129600000000D+06  .406056642532D-06 -.169553232063D+01  .102445483208D-06
     .976930357436D+00  .279000000000D+03 -.147678773347D+01 -.769674917193D-08
    -.371444043564D-10  .100000000000D+01  .156800000000D+04  .000000000000D+00
     .240000000000D+01  .000000000000D+00 -.419095158577D-08  .520000000000D+02
     .122406000000D+06  .400000000000D+01
29 10  1 25 12  0  0.0  .927415676415D-04  .318323145621D-11  .000000000000D+00
     .620000000000D+02 -.487500000000D+01  .491234747613D-08  .100098144895D+00
    -.158324837685D-06  .288857868873D-02  .726059079170D-05  .515379773903D+04
     .129600000000D+06 -.111758708954D-07  .482891765855D+00 -.149011611938D-07
     .960490462957D+00  .242093750000D+03 -.131611012605D+01 -.808997983728D-08
     .135362781260D-09  .100000000000D+01  .156800000000D+04  .000000000000D+00
     .240000000000D+01  .000000000000D+00 -.884756445885D-08  .620000000000D+02
     .122406000000D+06  .400000000000D+01
30 10  1 25 12  0  0.0  .213695690036D-03  .329691829393D-11  .000000000000D+00
     .690000000000D+02 -.606562500000D+02  .462733560424D-08 -.157989620097D+01
    -.293552875519D-05  .119598679012D-01  .955164432526D-05  .515379034615D+04
     .129600000000D+06  .111758708954D-06 -.636727624341D+00  .340864062309D-06
     .954884413123D+00  .192156250000D+03  .147290672007D+01 -.791711549392D-08
     .388587614805D-09  .100000000000D+01  .156800000000D+04  .000000000000D+00
     .485000000000D+01  .000000000000D+00 -.791624188423D-08  .690000000000D+02
     .122406000000D+06  .400000000000D+01
31 10  1 25 12  0  0.0 -.540507026017D-04  .147792889038D-11  .000000000000D+00
     .740000000000D+02 -.110000000000D+03  .409445626482D-08  .746370591411D+00
    -.573880970478D-05  .757345336024D-02  .521354377270D-05  .515361296844D+04
     .129600000000D+06 -.204890966415D-07 -.163965661371D+01 -.135973095894D-06
     .975380972121D+00  .285687500000D+03 -.111133533569D+01 -.811676666734D-08
    -.371444043564D-10  .100000000000D+01  .156800000000D+04  .000000000000D+00
     .240000000000D+01  .000000000000D+00 -.130385160446D-07  .740000000000D+02
     .122406000000D+06  .400000000000D+01
17 10  1 25 11 59 44.0  .124169979244D-03  .329691829393D-11  .000000000000D+00
     .190000000000D+02 -.100000000000D+02  .481020036415D-08 -.272828165010D+01
    -.482425093651D-06  .503921322525D-02  .719539821148D-05  .515377117538D+04
     .129584000000D+06 -.223517417908D-07  .474681307833D+00 -.149011611938D-06
     .960199656787D+00  .239406250000D+03 -.261154371467D+01 -.798283251702D-08
     .107504477993D-09  .100000000000D+01  .156800000000D+04  .000000000000D+00
     .240000000000D+01  .000000000000D+00 -.102445483208D-07  .190000000000D+02
     .123486000000D+06  .400000000000D+01
29 10  1 25 11 59 44.0  .927401706576D-04  .318323145621D-11  .000000000000D+00
     .120000000000D+02 -.487500000000D+01  .491234747613D-08  .977641644299D-01
    -.158324837685D-06  .288857624400D-02  .726059079170D-05  .515379773712D+04
     .129584000000D+06 -.111758708954D-07  .482891890203D+00 -.149011611938D-07
     .960490433699D+00  .242093750000D+03 -.131610968717D+01 -.808997983728D-08
     .135005623526D-09  .100000000000D+01  .156800000000D+04  .000000000000D+00
     .240000000000D+01  .000000000000D+00 -.884756445885D-08  .120000000000D+02
     .124326000000D+06  .400000000000D+01
 5 10  1 25 11 59 44.0 -.134166330099D-04  .329691829393D-11  .000000000000D+00
     .160000000000D+02  .977187500000D+02  .438661129140D-08 -.238517514458D+01
     .505335628986D-05  .186385132838D-02  .780075788498D-05  .515364268303D+04
     .129584000000D+06  .745058059692D-08  .254501241090D+01  .502914190292D-07
     .959976687591D+00  .231781250000D+03  .324019042385D+00 -.794247369305D-08
    -.102861427448D-09  .100000000000D+01  .156800000000D+04  .000000000000D+00
     .240000000000D+01  .000000000000D+00 -.884756445885D-08  .160000000000D+02
     .125706000000D+06  .400000000000D+01
23 10  1 25 11 59 44.0  .381545163691D-03 -.909494701773D-12  .000000000000D+00
     .000000000000D+00  .426250000000D+02  .439732602342D-08  .239549438292D+01
     .221282243729D-05  .633342191577D-02  .258162617683D-05  .515373244858D+04
     .129584000000D+06 -.428408384323D-07 -.268065253381D+01  .121071934700D-06
     .969145718295D+00  .334656250000D+03  .301043256661D+01 -.817391190481D-08
     .192865176466D-10  .100000000000D+01  .156800000000D+04  .000000000000D+00
     .240000000000D+01  .000000000000D+00 -.200234353542D-07  .000000000000D+00
     .126036000000D+06  .400000000000D+01
 4 10  1 25 11 59 44.0 -.475326087326D-03 -.193267624127D-10  .000000000000D+00
     .110000000000D+02  .190625000000D+02  .505913930489D-08 -.854870668360D+00
     .105239450932D-05  .913097045850D-02  .816583633423D-05  .515361816025D+04
     .129584000000D+06  .203028321266D-06  .150400233706D+01  .128522515297D-06
     .939040656298D+00  .210000000000D+03  .591198892687D+00 -.822819988041D-08
    -.403231081907D-09  .100000000000D+01  .156800000000D+04  .000000000000D+00
     .240000000000D+01  .000000000000D+00 -.605359673500D-08  .110000000000D+02
     .127206000000D+06  .400000000000D+01
26 10  1 25 11 59 44.0 -.125356018543D-04 -.318323145621D-11  .000000000000D+00
     .430000000000D+02  .287500000000D+02  .392659212975D-08  .341241344952D+00
     .169128179550D-05  .196719749365D-01  .281445682049D-05  .515362275505D+04
     .129584000000D+06 -.346451997757D-06 -.262580235148D+01  .201165676117D-06
     .991675313566D+00  .343687500000D+03  .105847640138D+01 -.831141763248D-08
    -.378587198248D-10  .100000000000D+01  .156800000000D+04  .000000000000D+00
     .240000000000D+01  .000000000000D+00 -.605359673500D-08  .430000000000D+02
     .128736000000D+06  .400000000000D+01
16 10  1 25 11 59 28.0 -.343210995197D-04 -.409272615798D-11  .000000000000D+00
     .100000000000D+01 -.605312500000D+02  .424910556373D-08 -.148438725496D+01
    -.332109630108D-05  .558271107730D-02  .935047864914D-05  .515369860268D+04
     .129568000000D+06  .130385160446D-07 -.567814262760D+00 -.838190317154D-07
     .971003082976D+00  .205843750000D+03 -.272439911233D+00 -.776960934970D-08
     .446447167745D-09  .100000000000D+01  .156800000000D+04  .000000000000D+00
     .240000000000D+01  .000000000000D+00 -.977888703346D-08  .100000000000D+01
     .129216000000D+06  .400000000000D+01
16 10  1 25 13 59 28.0 -.343504361808D-04 -.409272615798D-11  .000000000000D+00
     .200000000000D+01 -.657187500000D+02  .417481675502D-08 -.434058738209D+00
    -.345706939697D-05  .558337429538D-02  .949203968048D-05  .515370076180D+04
     .136768000000D+06  .689178705215D-07 -.567870130139D+00 -.558793544769D-07
     .971006247268D+00  .199593750000D+03 -.272605690573D+00 -.779353891789D-08
     .428232123301D-09  .100000000000D+01  .156800000000D+04  .000000000000D+00
     .240000000000D+01  .000000000000D+00 -.977888703346D-08  .200000000000D+01
     .129606000000D+06  .400000000000D+01
 4 10  1 25 13 59 44.0 -.475465320051D-03 -.193267624127D-10  .000000000000D+00
     .120000000000D+02  .110000000000D+02  .518200156545D-08  .195329254968D+00
     .743195414543D-06  .912962551229D-02  .842474400997D-05  .515361561012D+04
     .136784000000D+06  .372529029846D-07  .150394256223D+01  .167638063431D-06
     .939037285735D+00  .203812500000D+03  .591218642081D+00 -.832784688825D-08
    -.416803075807D-09  .100000000000D+01  .156800000000D+04  .000000000000D+00
     .240000000000D+01  .000000000000D+00 -.605359673500D-08  .120000000000D+02
     .129606000000D+06  .400000000000D+01
 5 10  1 25 13 59 44.0 -.133928842843D-04  .329691829393D-11  .000000000000D+00
     .170000000000D+02  .904687500000D+02  .433339478900D-08 -.133449609656D+01
     .471062958241D-05  .186406436842D-02  .795163214207D-05  .515364417839D+04
     .136784000000D+06  .745058059692D-08  .254495557653D+01 -.298023223877D-07
     .959975700121D+00  .226437500000D+03  .323538662513D+00 -.794318800852D-08
    -.168221292806D-09  .100000000000D+01  .156800000000D+04  .000000000000D+00
     .240000000000D+01  .000000000000D+00 -.884756445885D-08  .170000000000D+02
     .129606000000D+06  .400000000000D+01
